YAOGAN-43 01G           
1 60464U 24148G   26068.44348481  .00010133  00000+0  35873-3 0  9993
2 60464  35.0006  62.0013 0007382 306.3543  53.6492 15.28332833 87004
STARLINK-33960          
1 63966U 25099Q   26068.32733710  .00028557  00000+0  10430-2 0  9999
2 63966  42.9956 178.0221 0000432 252.3904 107.6900 15.27588078 47287
